O3B FM5                 
1 39188U 13031A   22018.53462497 -.00000016  00000+0  00000+0 0  9996
2 39188   0.0316 359.2142 0002659 311.4910  49.2685  5.00116245156468
O3B FM4                 
1 39189U 13031B   22018.40043455 -.00000017  00000+0  00000+0 0  9993
2 39189   0.0561  16.7269 0003185 243.1958 100.0382  5.00116300156477
O3B FM2                 
1 39190U 13031C   22019.45238047 -.00000015  00000+0  00000+0 0  9992
2 39190   0.0607  19.1657 0005660 214.0735 126.7057  5.00115971156576
O3B PFM                 
1 39191U 13031D   22018.47975350 -.00000016  00000+0  00000+0 0  9990
2 39191   0.0397   5.3572 0002589 294.7064  59.9076  5.00115794156327
O3B FM3                 
1 40079U 14038A   22019.38732909 -.00000015  00000+0  00000+0 0  9996
2 40079   0.0488  14.2867 0004066 319.1154  26.5738  5.00115414137597
O3B FM7                 
1 40080U 14038B   22018.53402206 -.00000016  00000+0  00000+0 0  9999
2 40080   0.0502  19.2148 0002415 235.8295 104.9258  5.00115964137306
O3B FM6                 
1 40081U 14038C   22017.56080032 -.00000018  00000+0  00000+0 0  9993
2 40081   0.0496  13.9422 0002649 284.1854  61.8426  5.00115534137202
O3B FM8                 
1 40082U 14038D   22019.41380646 -.00000015  00000+0  00000+0 0  9991
2 40082   0.0530  14.0429 0002816 285.3937  60.5320  5.00115490137594
O3B FM10                
1 40348U 14083A   22018.44040278 -.00000016  00000+0  00000+0 0  9993
2 40348   0.0448   4.7314 0002659 293.6178  61.6208  5.00115936129313
O3B FM11                
1 40349U 14083B   22018.45375060 -.00000016  00000+0  00000+0 0  9995
2 40349   0.0414   9.3042 0002028 279.7947  70.8760  5.00115271129334
O3B FM12                
1 40350U 14083C   22013.52395642 -.00000020  00000+0  00000+0 0  9993
2 40350   0.0423   9.2500 0002590 278.2513  72.4675  5.00115826129093
O3B FM9                 
1 40351U 14083D   22018.50782619 -.00000016  00000+0  00000+0 0  9996
2 40351   0.0404  10.0719 0002586 287.3974  62.5012  5.00115058129498
DIAMOND RED             
1 42783U 17036U   22019.08782689  .00005290  00000+0  21412-3 0  9991
2 42783  97.2222  65.1225 0012521 133.7835 226.4442 15.25032896254165
DIAMOND GREEN           
1 42785U 17036W   22019.08710428  .00005622  00000+0  22725-3 0  9992
2 42785  97.2226  65.1784 0012399 134.3546 225.8710 15.25052130254153
DIAMOND BLUE            
1 42786U 17036X   22018.69254043  .00004889  00000+0  19808-3 0  9997
2 42786  97.2227  64.7898 0012293 136.0462 224.1756 15.25039240254176
LEO VANTAGE 1           
1 43113U 18004C   22018.96855778  .00000278  00000+0  62116-4 0  9999
2 43113  99.2678  83.5032 0330264 278.9844  77.4102 14.38019452202558
O3B FM15                
1 43231U 18024A   22017.77452843 -.00000017  00000+0  00000+0 0  9997
2 43231   0.0471   1.4130 0002696 298.1062  60.4508  5.00115858 70404
O3B FM16                
1 43232U 18024B   22017.62796803 -.00000017  00000+0  00000+0 0  9999
2 43232   0.0493 357.2001 0002674 301.5354  61.2346  5.00115754 70322
O3B FM14                
1 43233U 18024C   22018.86688584 -.00000016  00000+0  00000+0 0  9992
2 43233   0.0506 356.2198 0002606 300.1536  63.5967  5.00116231 70387
O3B FM13                
1 43234U 18024D   22018.32038507 -.00000017  00000+0  00000+0 0  9999
2 43234   0.0291  13.0423 0002800 270.2609  76.6624  5.00114704 70593
O3B FM20                
1 44112U 19020A   22017.69410319 -.00000017  00000+0  00000+0 0  9996
2 44112   0.0454   5.0943 0002337 295.0007  59.8787  5.00115358 50957
O3B FM19                
1 44113U 19020B   22006.08774779 -.00000023  00000+0  00000+0 0  9998
2 44113   0.0202 319.6486 0002263 339.8660  60.4587  5.00115839 50438
O3B FM17                
1 44114U 19020C   22018.40111089 -.00000017  00000+0  00000+0 0  9990
2 44114   0.0651   4.3799 0002672 297.6547  57.9363  5.00115365 50944
O3B FM18                
1 44115U 19020D   22018.34775701 -.00000017  00000+0  00000+0 0  9991
2 44115   0.0450   5.1085 0002827 294.1296  60.7305  5.00115678 51063
SALSAT                  
1 46495U 20068K   22018.87966180  .00001287  00000+0  97881-4 0  9996
2 46495  97.7139 320.3650 0018925  65.7443 294.5761 15.03793801 71705
